{"type": "FeatureCollection", "features": [ {"type": "Feature", "properties": {"norad_id": 66386, "name": "STARLINK-35651", "group": "last-30-days", "lat": 30.505572729369618, "lon": -47.7064248816936, "alt_km": 444.0832410383782, "timestamp": "2025-12-08T03:50:05.782173+00:00", "meta": {"OBJECT_NAME": "STARLINK-35651", "OBJECT_ID": "2025-257G", "EPOCH": "2025-12-07T06:00:04.999968", "MEAN_MOTION": 15.39782959, "ECCENTRICITY": 0.00010873, "INCLINATION": 53.1605, "RA_OF_ASC_NODE": 290.3679, "ARG_OF_PERICENTER": 88.6119, "MEAN_ANOMALY": 306.0099, "EPHEMERIS_TYPE": 0, "CLASSIFICATION_TYPE": "U", "NORAD_CAT_ID": 66386, "ELEMENT_SET_NO": 999, "REV_AT_EPOCH": 561, "BSTAR": -0.0070732182, "MEAN_MOTION_DOT": -0.00274835, "MEAN_MOTION_DDOT": 0}, "tle": {"line1": "1 66386U 25257G   25341.25005787 -.00274835  00000+0 -70732-2 0  9990", "line2": "2 66386  53.1605 290.3679 0001087  88.6119 306.0099 15.39782959  5613"}}, "geometry": {"type": "Point", "coordinates": [-47.7064248816936, 30.505572729369618]}}, {"type": "Feature", "properties": {"norad_id": 66387, "name": "STARLINK-35661", "group": "last-30-days", "lat": 32.06652604665966, "lon": -45.9101465937687, "alt_km": 442.18611117657747, "timestamp": "2025-12-08T03:50:05.782185+00:00", "meta": {"OBJECT_NAME": "STARLINK-35661", "OBJECT_ID": "2025-257H", "EPOCH": "2025-12-07T06:00:04.999968", "MEAN_MOTION": 15.39550228, "ECCENTRICITY": 0.00015218, "INCLINATION": 53.1606, "RA_OF_ASC_NODE": 290.3645, "ARG_OF_PERICENTER": 82.7361, "MEAN_ANOMALY": 313.7011, "EPHEMERIS_TYPE": 0, "CLASSIFICATION_TYPE": "U", "NORAD_CAT_ID": 66387, "ELEMENT_SET_NO": 999, "REV_AT_EPOCH": 561, "BSTAR": 0.0024689782, "MEAN_MOTION_DOT": 0.00099426, "MEAN_MOTION_DDOT": 0}, "tle": {"line1": "1 66387U 25257H   25341.25005787  .00099426  00000+0  24690-2 0  9992", "line2": "2 66387  53.1606 290.3645 0001521  82.7361 313.7011 15.39550228  5616"}}, "geometry": {"type": "Point", "coordinates": [-45.9101465937687, 32.06652604665966]}}, {"type": "Feature", "properties": {"norad_id": 66388, "name": "STARLINK-35647", "group": "last-30-days", "lat": 46.725525427813956, "lon": -21.194358511957898, "alt_km": 439.856749063626, "timestamp": "2025-12-08T03:50:05.782196+00:00", "meta": {"OBJECT_NAME": "STARLINK-35647", "OBJECT_ID": "2025-257J", "EPOCH": "2025-12-07T06:00:04.999968", "MEAN_MOTION": 15.39556802, "ECCENTRICITY": 0.0001345, "INCLINATION": 53.1602, "RA_OF_ASC_NODE": 290.3168, "ARG_OF_PERICENTER": 81.0245, "MEAN_ANOMALY": 339.3312, "EPHEMERIS_TYPE": 0, "CLASSIFICATION_TYPE": "U", "NORAD_CAT_ID": 66388, "ELEMENT_SET_NO": 999, "REV_AT_EPOCH": 561, "BSTAR": 0.002063714, "MEAN_MOTION_DOT": 0.00082876, "MEAN_MOTION_DDOT": 0}, "tle": {"line1": "1 66388U 25257J   25341.25005787  .00082876  00000+0  20637-2 0  9991", "line2": "2 66388  53.1602 290.3168 0001345  81.0245 339.3312 15.39556802  5612"}}, "geometry": {"type": "Point", "coordinates": [-21.194358511957898, 46.725525427813956]}}, {"type": "Feature", "properties": {"norad_id": 66389, "name": "STARLINK-35694", "group": "last-30-days", "lat": 53.02557809957204, "lon": 21.190333210713742, "alt_km": 439.06214624665336, "timestamp": "2025-12-08T03:50:05.782207+00:00", "meta": {"OBJECT_NAME": "STARLINK-35694", "OBJECT_ID": "2025-257K", "EPOCH": "2025-12-07T06:00:04.999968", "MEAN_MOTION": 15.39557293, "ECCENTRICITY": 0.00012069, "INCLINATION": 53.1593, "RA_OF_ASC_NODE": 290.2611, "ARG_OF_PERICENTER": 101.4444, "MEAN_ANOMALY": 346.509, "EPHEMERIS_TYPE": 0, "CLASSIFICATION_TYPE": "U", "NORAD_CAT_ID": 66389, "ELEMENT_SET_NO": 999, "REV_AT_EPOCH": 561, "BSTAR": 0.0019689771, "MEAN_MOTION_DOT": 0.00079014, "MEAN_MOTION_DDOT": 0}, "tle": {"line1": "1 66389U 25257K   25341.25005787  .00079014  00000+0  19690-2 0  9999", "line2": "2 66389  53.1593 290.2611 0001206 101.4444 346.5090 15.39557293  5616"}}, "geometry": {"type": "Point", "coordinates": [21.190333210713742, 53.02557809957204]}}, {"type": "Feature", "properties": {"norad_id": 66390, "name": "STARLINK-35665", "group": "last-30-days", "lat": -51.27547597465201, "lon": 174.87074888859064, "alt_km": 423.2585944853463, "timestamp": "2025-12-08T03:50:05.782218+00:00", "meta": {"OBJECT_NAME": "STARLINK-35665", "OBJECT_ID": "2025-257L", "EPOCH": "2025-12-07T06:36:21.781440", "MEAN_MOTION": 15.49388839, "ECCENTRICITY": 0.00013095, "INCLINATION": 53.1594, "RA_OF_ASC_NODE": 289.8739, "ARG_OF_PERICENTER": 94.4645, "MEAN_ANOMALY": 265.6513, "EPHEMERIS_TYPE": 0, "CLASSIFICATION_TYPE": "U", "NORAD_CAT_ID": 66390, "ELEMENT_SET_NO": 999, "REV_AT_EPOCH": 563, "BSTAR": 0.00291204, "MEAN_MOTION_DOT": 0.00165447, "MEAN_MOTION_DDOT": 0}, "tle": {"line1": "1 66390U 25257L   25341.27525210  .00165447  00000+0  29120-2 0  9996", "line2": "2 66390  53.1594 289.8739 0001309  94.4645 265.6513 15.49388839  5634"}}, "geometry": {"type": "Point", "coordinates": [174.87074888859064, -51.27547597465201]}}, {"type": "Feature", "properties": {"norad_id": 66391, "name": "STARLINK-35656", "group": "last-30-days", "lat": 53.1172569639563, "lon": 18.30727225139218, "alt_km": 438.8661330948771, "timestamp": "2025-12-08T03:50:05.782229+00:00", "meta": {"OBJECT_NAME": "STARLINK-35656", "OBJECT_ID": "2025-257M", "EPOCH": "2025-12-07T07:11:14.124192", "MEAN_MOTION": 15.3960719, "ECCENTRICITY": 0.00014843, "INCLINATION": 53.1598, "RA_OF_ASC_NODE": 290.0172, "ARG_OF_PERICENTER": 119.2267, "MEAN_ANOMALY": 240.8886, "EPHEMERIS_TYPE": 0, "CLASSIFICATION_TYPE": "U", "NORAD_CAT_ID": 66391, "ELEMENT_SET_NO": 999, "REV_AT_EPOCH": 563, "BSTAR": 0.001971351, "MEAN_MOTION_DOT": 0.00079243, "MEAN_MOTION_DDOT": 0}, "tle": {"line1": "1 66391U 25257M   25341.29946903  .00079243  00000+0  19714-2 0  9991", "line2": "2 66391  53.1598 290.0172 0001484 119.2267 240.8886 15.39607190  5635"}}, "geometry": {"type": "Point", "coordinates": [18.30727225139218, 53.1172569639563]}}, {"type": "Feature", "properties": {"norad_id": 66392, "name": "STARLINK-35671", "group": "last-30-days", "lat": 47.60414519745403, "lon": -18.774706587333473, "alt_km": 439.4773818904596, "timestamp": "2025-12-08T03:50:05.782240+00:00", "meta": {"OBJECT_NAME": "STARLINK-35671", "OBJECT_ID": "2025-257N", "EPOCH": "2025-12-07T06:00:04.999968", "MEAN_MOTION": 15.39544403, "ECCENTRICITY": 0.00017331, "INCLINATION": 53.1602, "RA_OF_ASC_NODE": 290.3124, "ARG_OF_PERICENTER": 92.5879, "MEAN_ANOMALY": 329.6122, "EPHEMERIS_TYPE": 0, "CLASSIFICATION_TYPE": "U", "NORAD_CAT_ID": 66392, "ELEMENT_SET_NO": 999, "REV_AT_EPOCH": 561, "BSTAR": 0.0026125692, "MEAN_MOTION_DOT": 0.00105293, "MEAN_MOTION_DDOT": 0}, "tle": {"line1": "1 66392U 25257N   25341.25005787  .00105293  00000+0  26126-2 0  9994", "line2": "2 66392  53.1602 290.3124 0001733  92.5879 329.6122 15.39544403  5615"}}, "geometry": {"type": "Point", "coordinates": [-18.774706587333473, 47.60414519745403]}}, {"type": "Feature", "properties": {"norad_id": 66393, "name": "STARLINK-35652", "group": "last-30-days", "lat": 45.4133557205285, "lon": 56.40432297770618, "alt_km": 439.92222550139286, "timestamp": "2025-12-08T03:50:05.782251+00:00", "meta": {"OBJECT_NAME": "STARLINK-35652", "OBJECT_ID": "2025-257P", "EPOCH": "2025-12-07T06:00:04.999968", "MEAN_MOTION": 15.39556082, "ECCENTRICITY": 0.00014734, "INCLINATION": 53.1589, "RA_OF_ASC_NODE": 290.2133, "ARG_OF_PERICENTER": 97.4726, "MEAN_ANOMALY": 14.3827, "EPHEMERIS_TYPE": 0, "CLASSIFICATION_TYPE": "U", "NORAD_CAT_ID": 66393, "ELEMENT_SET_NO": 999, "REV_AT_EPOCH": 561, "BSTAR": 0.0022418952, "MEAN_MOTION_DOT": 0.00090151, "MEAN_MOTION_DDOT": 0}, "tle": {"line1": "1 66393U 25257P   25341.25005787  .00090151  00000+0  22419-2 0  9992", "line2": "2 66393  53.1589 290.2133 0001473  97.4726  14.3827 15.39556082  5611"}}, "geometry": {"type": "Point", "coordinates": [56.40432297770618, 45.4133557205285]}}, {"type": "Feature", "properties": {"norad_id": 66394, "name": "STARLINK-35672", "group": "last-30-days", "lat": 44.78090470528643, "lon": 57.845972962254926, "alt_km": 442.4439383056606, "timestamp": "2025-12-08T03:50:05.782263+00:00", "meta": {"OBJECT_NAME": "STARLINK-35672", "OBJECT_ID": "2025-257Q", "EPOCH": "2025-12-07T06:00:04.999968", "MEAN_MOTION": 15.39909783, "ECCENTRICITY": 0.00012547, "INCLINATION": 53.159, "RA_OF_ASC_NODE": 290.2087, "ARG_OF_PERICENTER": 75.1606, "MEAN_ANOMALY": 38.5094, "EPHEMERIS_TYPE": 0, "CLASSIFICATION_TYPE": "U", "NORAD_CAT_ID": 66394, "ELEMENT_SET_NO": 999, "REV_AT_EPOCH": 561, "BSTAR": -0.012679142, "MEAN_MOTION_DOT": -0.00481388, "MEAN_MOTION_DDOT": 0}, "tle": {"line1": "1 66394U 25257Q   25341.25005787 -.00481388  00000+0 -12679-1 0  9997", "line2": "2 66394  53.1590 290.2087 0001254  75.1606  38.5094 15.39909783  5613"}}, "geometry": {"type": "Point", "coordinates": [57.845972962254926, 44.78090470528643]}}, {"type": "Feature", "properties": {"norad_id": 66395, "name": "STARLINK-35681", "group": "last-30-days", "lat": 28.86310054737482, "lon": 81.46492012570255, "alt_km": 443.1038623239465, "timestamp": "2025-12-08T03:50:05.782274+00:00", "meta": {"OBJECT_NAME": "STARLINK-35681", "OBJECT_ID": "2025-257R", "EPOCH": "2025-12-07T06:00:04.999968", "MEAN_MOTION": 15.39544627, "ECCENTRICITY": 8.756e-05, "INCLINATION": 53.1592, "RA_OF_ASC_NODE": 290.1619, "ARG_OF_PERICENTER": 93.5267, "MEAN_ANOMALY": 44.1106, "EPHEMERIS_TYPE": 0, "CLASSIFICATION_TYPE": "U", "NORAD_CAT_ID": 66395, "ELEMENT_SET_NO": 999, "REV_AT_EPOCH": 545, "BSTAR": 0.002249268, "MEAN_MOTION_DOT": 0.00090418, "MEAN_MOTION_DDOT": 0}, "tle": {"line1": "1 66395U 25257R   25341.25005787  .00090418  00000+0  22493-2 0  9992", "line2": "2 66395  53.1592 290.1619 0000875  93.5267  44.1106 15.39544627  5452"}}, "geometry": {"type": "Point", "coordinates": [81.46492012570255, 28.86310054737482]}}]}